ONEWEB-0597             
1 54663U 22166X   25282.27735580 -.00004719  00000+0 -11473-1 0  9996
2 54663  87.9138 294.0593 0001554  89.6804 270.4508 13.21765399138390
ONEWEB-0600             
1 54664U 22166Y   25282.10853631 -.00001874  00000+0 -45713-2 0  9991
2 54664  87.9165 294.0854 0001822  89.1390 270.9953 13.21811420138345
ONEWEB-0601             
1 54665U 22166Z   25282.32770099  .00000003  00000+0 -23859-4 0  9993
2 54665  87.9168 294.0591 0001767  81.1363 278.9971 13.21830319138567
ONEWEB-0602             
1 54666U 22166AA  25282.29085030 -.00035888  00000+0 -87153-1 0  9998
2 54666  87.9247 294.0753 0001509  83.3576 276.7729 13.21918292138407
ONEWEB-0603             
1 54667U 22166AB  25282.29779217  .00000137  00000+0  29996-3 0  9996
2 54667  87.9174 294.0025 0001812  88.6845 271.4496 13.21802586138336
ONEWEB-0604             
1 54668U 22166AC  25282.28530688 -.00005698  00000+0 -13856-1 0  9998
2 54668  87.9176 294.0290 0001379  91.1078 269.0214 13.21738383138297
ONEWEB-0605             
1 54669U 22166AD  25282.27893610 -.00005483  00000+0 -13328-1 0  9991
2 54669  87.9171 294.0606 0002249  73.6202 286.5179 13.21761157138362
ONEWEB-0606             
1 54670U 22166AE  25282.30094755 -.00002178  00000+0 -53082-2 0  9990
2 54670  87.9160 294.0663 0001988  95.2157 264.9204 13.21803298138422
